GLOBALSTAR M024         
1 25883U 99043A   25355.12465819 -.00000102  00000+0 -13157-2 0  9990
2 25883  52.0043 318.8253 0001854  37.3295  48.3299 11.10165978135620
GLOBALSTAR M027         
1 25884U 99043B   25355.49460529 -.00000025  00000+0  14627-2 0  9990
2 25884  52.0236  41.2785 0021008 293.0858  66.7721 11.04372677161937
GLOBALSTAR M054         
1 25885U 99043C   25355.54796110 -.00000091  00000+0 -51058-3 0  9999
2 25885  52.0113 137.0143 0005877 132.9018 306.5795 11.39224885140409
GLOBALSTAR M053         
1 25886U 99043D   25355.53769729 -.00000079  00000+0 -30906-3 0  9990
2 25886  51.9982  94.5288 0003595  57.1390 316.0071 11.27668834140580
GLOBALSTAR M058         
1 25907U 99049A   25355.20033045 -.00000110  00000+0 -34850-3 0  9997
2 25907  51.9970 329.7973 0001719 280.5382  79.5259 11.93206225563868
GLOBALSTAR M050         
1 25908U 99049B   25355.31807747 -.00000038  00000+0  57113-3 0  9993
2 25908  52.0012 323.1778 0009491  44.3680 100.6460 12.07461691170793
GLOBALSTAR M033         
1 25909U 99049C   25355.51275042 -.00000090  00000+0  11999-4 0  9994
2 25909  51.9876 181.5374 0013131 292.0751  67.8702 12.20294827558619
GLOBALSTAR M055         
1 25910U 99049D   25355.24724839 -.00000080  00000+0  12001-3 0  9992
2 25910  51.9984 183.9222 0007486 150.9565 209.1704 12.29438452191293
